TRANSPORTER-10 OBJECT AD
1 59125U 24043AD  26068.86032889  .00011954  00000+0  36311-3 0  9997
2 59125  97.5470 207.3753 0008984 221.4908 138.5653 15.34189901112026
STARLINK-35336          
1 66006U 25232B   26068.38055772  .00022971  00000+0  78538-3 0  9995
2 66006  53.1582 104.9612 0001201  92.3455 267.7684 15.30196365 23384
